ACS3                    
1 59588U 24077B   24292.09129937  .00000547  00000+0  63885-3 0  9992
2 59588  97.4596 331.9133 0049059 178.7866 181.3414 13.71061477 24218
